TELSTAR 18V             
1 43611U 18069A   26158.34280918 -.00000279  00000+0  00000+0 0  9993
2 43611   0.0191 287.3508 0001998 140.4295  89.3964  1.00271186 28547
AZERSPACE 2 (IS-38)     
1 43632U 18074A   26159.21007318  .00000152  00000+0  00000+0 0  9999
2 43632   0.0199 322.0677 0001456 111.7815 303.4927  1.00271205 28350
HORIZONS-3E             
1 43633U 18074B   26158.80681962 -.00000015  00000+0  00000+0 0  9996
2 43633   0.0033 245.6704 0000822  32.8636  77.1255  1.00272627 28245
AEHF-4 (USA 288)        
1 43651U 18079A   26159.25889991 -.00000260  00000+0  00000+0 0  9995
2 43651   1.4292   3.1626 0060601 356.9233 282.1638  1.00276322 28206
BEIDOU-3 G1             
1 43683U 18085A   26159.23279683 -.00000092  00000+0  00000+0 0  9999
2 43683   2.8447  97.6285 0008511 346.9193  55.8676  1.00271674 27978
GSAT-29                 
1 43698U 18089A   26159.21206653  .00000101  00000+0  00000+0 0  9994
2 43698   0.0457 115.0912 0003598 318.5050 314.3833  1.00271554 27698
ES'HAIL 2               
1 43700U 18090A   26158.90104546  .00000159  00000+0  00000+0 0  9996
2 43700   0.0153  51.7811 0001905  61.1895 133.5104  1.00273859 27587
GEO-KOMPSAT-2A          
1 43823U 18100A   26159.22655681 -.00000328  00000+0  00000+0 0  9990
2 43823   0.0496 133.5222 0002325 310.6646  22.2589  1.00270964 27542
GSAT-11                 
1 43824U 18100B   26159.07316128 -.00000062  00000+0  00000+0 0  9999
2 43824   0.0507 256.3311 0007902 189.4093 271.0754  1.00271533 27386
GSAT-7A                 
1 43864U 18105A   26159.14836492  .00000042  00000+0  00000+0 0  9994
2 43864   0.0174 259.2608 0002261 160.2259 313.2703  1.00269372 27353
COSMOS 2533             
1 43867U 18107A   26158.00297760 -.00000025  00000+0  00000+0 0  9994
2 43867   0.0463  97.2057 0000560 358.9855 230.2964  1.00273352 27342
TJS-3                   
1 43874U 18110A   26158.75589888 -.00000201  00000+0  00000+0 0  9999
2 43874   2.5195  80.6060 0001979  73.9109 162.0070  1.00273399 27329
ZHONGXING-2D            
1 43920U 19001A   26159.29814108 -.00000321  00000+0  00000+0 0  9990
2 43920   0.0476  88.3633 0000729 285.0718 120.5930  1.00269205 53998
HELLAS-SAT 4 & SGS-1    
1 44034U 19007A   26159.20885984  .00000168  00000+0  00000+0 0  9992
2 44034   0.0654 133.3934 0005041   6.2334 231.1856  1.00271079 27277
GSAT-31                 
1 44035U 19007B   26159.21059318  .00000141  00000+0  00000+0 0  9999
2 44035   0.0875 261.6682 0002040 107.1247  11.4409  1.00268284 26870
NUSANTARA SATU          
1 44048U 19009A   26158.73095937  .00000000  00000+0  00000+0 0  9992
2 44048   0.0166  91.6471 0004309  24.9583 188.6763  1.00267728 26673
ZHONGXING-6C            
1 44067U 19012A   26159.29831441 -.00000320  00000+0  00000+0 0  9993
2 44067   0.1414  80.3787 0013376 330.2934  83.8196  1.00268773 26658
WGS 10 (USA 291)        
1 44071U 19014A   26159.21310653  .00000062  00000+0  00000+0 0  9991
2 44071   0.0184   8.8457 0000285 330.4906  54.3105  1.00272385 26524
TIANLIAN 2-01           
1 44076U 19017A   26159.14507272 -.00000091  00000+0  00000+0 0  9999
2 44076   0.5155  83.1289 0000858   7.7419 294.9216  1.00271421 26558
ARABSAT-6A              
1 44186U 19021A   26159.01382008  .00000169  00000+0  00000+0 0  9995
2 44186   0.0541  17.0542 0000687  50.5424 224.2998  1.00273929 26068
BEIDOU-3 IGSO-1         
1 44204U 19023A   26157.95428288 -.00000215  00000+0  00000+0 0  9993
2 44204  58.6799  37.7569 0025419 225.7371  92.8010  1.00294902  7100
BEIDOU-2 G8             
1 44231U 19027A   26159.30108775 -.00000231  00000+0  00000+0 0  9992
2 44231   1.6347  74.4891 0010552 284.2970 150.8174  1.00274494 25997
YAMAL 601               
1 44307U 19031A   26159.21067985  .00000135  00000+0  00000+0 0  9990
2 44307   0.0113  35.1219 0002436  42.7823 303.5484  1.00271352 25833
AT&T T-16               
1 44333U 19034A   26158.39689512 -.00000101  00000+0  00000+0 0  9990
2 44333   0.0211  62.8087 0000497 205.3448  29.6836  1.00271029 25531
EUTELSAT 7C             
1 44334U 19034B   26159.20253315  .00000064  00000+0  00000+0 0  9997
2 44334   0.0738 173.8980 0003150 248.1957 274.4159  1.00271364  6742
BEIDOU-3 IGSO-2         
1 44337U 19035A   26157.58006347 -.00000062  00000+0  00000+0 0  9990
2 44337  55.2446 158.9549 0039839 216.2059 208.5586  1.00270343 25569
EDRS-C                  
1 44475U 19049A   26159.30065441 -.00000246  00000+0  00000+0 0  9994
2 44475   0.0241 105.5952 0001078 341.4984  60.3503  1.00271605 25128
INTELSAT 39 (IS-39)     
1 44476U 19049B   26159.21345319  .00000049  00000+0  00000+0 0  9990
2 44476   0.0187 316.3665 0000765   2.0347  77.0057  1.00270737 25030
AMOS-17                 
1 44479U 19050A   26159.27579999  .00000125  00000+0  00000+0 0  9999
2 44479   0.0171 326.6281 0001649 134.3179 272.0086  1.00270283 25099
AEHF-5 (USA 292)        
1 44481U 19051A   26159.07706130 -.00000243  00000+0  00000+0 0  9992
2 44481   1.4619 335.4513 0067044   0.9823  40.8101  1.00267904 25179
EUTELSAT 5 WEST B       
1 44624U 19067A   26159.27146663 -.00000026  00000+0  00000+0 0  9998
2 44624   0.0635 345.8627 0003179  91.6173 271.9230  1.00272023 24342
