OBJECT_NAME,OBJECT_ID,EPOCH,MEAN_MOTION,ECCENTRICITY,INCLINATION,RA_OF_ASC_NODE,ARG_OF_PERICENTER,MEAN_ANOMALY,EPHEMERIS_TYPE,CLASSIFICATION_TYPE,NORAD_CAT_ID,ELEMENT_SET_NO,REV_AT_EPOCH,BSTAR,MEAN_MOTION_DOT,MEAN_MOTION_DDOT
TELSTAR 18V,2018-069A,2026-06-07T08:13:38.713152,1.00271186,.00019988,0.0191,287.3508,140.4295,89.3964,0,U,43611,999,2854,0,-.279E-5,0
AZERSPACE 2 (IS-38),2018-074A,2026-06-08T05:02:30.322752,1.00271205,.00014568,0.0199,322.0677,111.7815,303.4927,0,U,43632,999,2835,0,.152E-5,0
HORIZONS-3E,2018-074B,2026-06-07T19:21:49.215168,1.00272627,.00008221,0.0033,245.6704,32.8636,77.1255,0,U,43633,999,2824,0,-.15E-6,0
AEHF-4 (USA 288),2018-079A,2026-06-08T06:12:48.952224,1.00276322,.00606015,1.4292,3.1626,356.9233,282.1638,0,U,43651,999,2820,0,-.26E-5,0
BEIDOU-3 G1,2018-085A,2026-06-08T05:35:13.646112,1.00271674,.00085114,2.8447,97.6285,346.9193,55.8676,0,U,43683,999,2797,0,-.92E-6,0
GSAT-29,2018-089A,2026-06-08T05:05:22.548192,1.00271554,.00035987,0.0457,115.0912,318.5050,314.3833,0,U,43698,999,2769,0,.101E-5,0
ES'HAIL 2,2018-090A,2026-06-07T21:37:30.327744,1.00273859,.00019055,0.0153,51.7811,61.1895,133.5104,0,U,43700,999,2758,0,.159E-5,0
GEO-KOMPSAT-2A,2018-100A,2026-06-08T05:26:14.508384,1.00270964,.00023255,0.0496,133.5222,310.6646,22.2589,0,U,43823,999,2754,0,-.328E-5,0
GSAT-11,2018-100B,2026-06-08T01:45:21.134592,1.00271533,.00079025,0.0507,256.3311,189.4093,271.0754,0,U,43824,999,2738,0,-.62E-6,0
GSAT-7A,2018-105A,2026-06-08T03:33:38.729088,1.00269372,.0002261,0.0174,259.2608,160.2259,313.2703,0,U,43864,999,2735,0,.42E-6,0
COSMOS 2533,2018-107A,2026-06-07T00:04:17.264640,1.00273352,.000056,0.0463,97.2057,358.9855,230.2964,0,U,43867,999,2734,0,-.25E-6,0
TJS-3,2018-110A,2026-06-07T18:08:29.663232,1.00273399,.0001979,2.5195,80.6060,73.9109,162.0070,0,U,43874,999,2732,0,-.201E-5,0
ZHONGXING-2D,2019-001A,2026-06-08T07:09:19.389312,1.00269205,.0000729,0.0476,88.3633,285.0718,120.5930,0,U,43920,999,5399,0,-.321E-5,0
HELLAS-SAT 4 & SGS-1,2019-007A,2026-06-08T05:00:45.490176,1.00271079,.00050419,0.0654,133.3934,6.2334,231.1856,0,U,44034,999,2727,0,.168E-5,0
GSAT-31,2019-007B,2026-06-08T05:03:15.250752,1.00268284,.00020407,0.0875,261.6682,107.1247,11.4409,0,U,44035,999,2687,0,.141E-5,0
NUSANTARA SATU,2019-009A,2026-06-07T17:32:34.889568,1.00267728,.00043099,0.0166,91.6471,24.9583,188.6763,0,U,44048,999,2667,0,0,0
ZHONGXING-6C,2019-012A,2026-06-08T07:09:34.365024,1.00268773,.00133768,0.1414,80.3787,330.2934,83.8196,0,U,44067,999,2665,0,-.32E-5,0
WGS 10 (USA 291),2019-014A,2026-06-08T05:06:52.404192,1.00272385,.00002859,0.0184,8.8457,330.4906,54.3105,0,U,44071,999,2652,0,.62E-6,0
TIANLIAN 2-01,2019-017A,2026-06-08T03:28:54.283008,1.00271421,.00008583,0.5155,83.1289,7.7419,294.9216,0,U,44076,999,2655,0,-.91E-6,0
ARABSAT-6A,2019-021A,2026-06-08T00:19:54.054912,1.00273929,.00006876,0.0541,17.0542,50.5424,224.2998,0,U,44186,999,2606,0,.169E-5,0
BEIDOU-3 IGSO-1,2019-023A,2026-06-06T22:54:10.040832,1.00294902,.0025419,58.6799,37.7569,225.7371,92.8010,0,U,44204,999,710,0,-.215E-5,0
BEIDOU-2 G8,2019-027A,2026-06-08T07:13:33.981600,1.00274494,.00105524,1.6347,74.4891,284.2970,150.8174,0,U,44231,999,2599,0,-.231E-5,0
YAMAL 601,2019-031A,2026-06-08T05:03:22.739040,1.00271352,.00024362,0.0113,35.1219,42.7823,303.5484,0,U,44307,999,2583,0,.135E-5,0
AT&T T-16,2019-034A,2026-06-07T09:31:31.738368,1.00271029,.0000497,0.0211,62.8087,205.3448,29.6836,0,U,44333,999,2553,0,-.101E-5,0
EUTELSAT 7C,2019-034B,2026-06-08T04:51:38.864160,1.00271364,.00031506,0.0738,173.8980,248.1957,274.4159,0,U,44334,999,674,0,.64E-6,0
BEIDOU-3 IGSO-2,2019-035A,2026-06-06T13:55:17.483808,1.00270343,.00398392,55.2446,158.9549,216.2059,208.5586,0,U,44337,999,2556,0,-.62E-6,0
EDRS-C,2019-049A,2026-06-08T07:12:56.541024,1.00271605,.00010789,0.0241,105.5952,341.4984,60.3503,0,U,44475,999,2512,0,-.246E-5,0
INTELSAT 39 (IS-39),2019-049B,2026-06-08T05:07:22.355616,1.00270737,.00007659,0.0187,316.3665,2.0347,77.0057,0,U,44476,999,2503,0,.49E-6,0
AMOS-17,2019-050A,2026-06-08T06:37:09.119136,1.00270283,.00016499,0.0171,326.6281,134.3179,272.0086,0,U,44479,999,2509,0,.125E-5,0
AEHF-5 (USA 292),2019-051A,2026-06-08T01:50:58.096320,1.00267904,.00670446,1.4619,335.4513,0.9823,40.8101,0,U,44481,999,2517,0,-.243E-5,0
EUTELSAT 5 WEST B,2019-067A,2026-06-08T06:30:54.716832,1.00272023,.0003179,0.0635,345.8627,91.6173,271.9230,0,U,44624,999,2434,0,-.26E-6,0
